ISS (ZARYA)             
1 25544U 98067A   26072.70791847  .00011780  00000+0  22432-3 0  9992
2 25544  51.6324  52.4887 0007884 189.2977 170.7866 15.48633802556952
ISS (UNITY)             
1 25575U 98069F   26072.70791847  .00011780  00000+0  22432-3 0  9998
2 25575  51.6324  52.4887 0007884 189.2977 170.7866 15.48633802554415
SWISSCUBE               
1 35932U 09051B   26072.99372396  .00001325  00000+0  27243-3 0  9993
2 35932  98.4096 339.2128 0007370 140.2287 219.9456 14.62272355875248
GAOFEN-1 02             
1 43259U 18031A   26072.67387638  .00000581  00000+0  90900-4 0  9996
2 43259  98.0637 135.4203 0002195 336.3176  23.7932 14.76449151428600
GAOFEN-1 03             
1 43260U 18031B   26072.99083185  .00001003  00000+0  15166-3 0  9993
2 43260  98.0626 135.6052 0003234  39.7747 320.3699 14.76428287428644
GAOFEN-1 04             
1 43262U 18031D   26072.96659275  .00000471  00000+0  75179-4 0  9990
2 43262  98.0639 135.7601 0001855  75.9314 284.2102 14.76444841428630
GAOFEN-10R              
1 44622U 19066A   26072.94880024  .00001755  00000+0  22164-3 0  9997
2 44622  98.0402  25.9011 0008263  94.7549 265.4608 14.83170684348264
JILIN-1 GAOFEN 2A       
1 44777U 19075A   26072.94903783  .00017758  00000+0  49885-3 0  9995
2 44777  97.5004 154.6993 0007548  72.4081 287.7987 15.36565084350244
GAOFEN DUOMO (GFDM)     
1 45856U 20042A   26072.94668390  .00001081  00000+0  16079-3 0  9993
2 45856  97.7861 136.2514 0011845  26.2921 333.8888 14.76849797306957
JILIN-1 GAOFEN 3B       
1 46454U 20065A   26072.69677253  .00208314  00000+0  10368-2 0  9995
2 46454  97.2358 130.4491 0003185 144.1208 216.0275 15.81348232305354
JILIN-1 GAOFEN 3D03     
1 49006U 21061D   26072.98747625  .00241191  00000+0  11672-2 0  9990
2 49006  97.3008 150.2487 0001474 150.7775 209.3576 15.81878461261227
ISS (NAUKA)             
1 49044U 21066A   26072.70791847  .00011780  00000+0  22432-3 0  9998
2 49044  51.6324  52.4887 0007884 189.2977 170.7866 15.48633802554456
GAOFEN-5 02             
1 49122U 21079A   26072.98626255  .00000155  00000+0  44049-4 0  9992
2 49122  98.2672 147.9575 0000109 265.6614  94.4572 14.57725614240214
JILIN-1 GAOFEN 03D18    
1 51844U 22019W   26071.26638448  .00175452  00000+0  10383-2 0  9993
2 51844  97.3668 163.7334 0003896 138.3279 221.8285 15.77584928224753
JILIN-1 GAOFEN 03D54    
1 54254U 22155D   26072.93916449  .00106712  00000+0  91324-3 0  9995
2 54254  97.6018 216.0779 0003038 304.0613  56.0360 15.69110286185256
OUTPOST MISSION 2       
1 58334U 23174CG  26072.95305895  .00038384  00000+0  65889-3 0  9995
2 58334  97.3968 162.7831 0006981 111.1455 249.0543 15.51046817131030
ISS OBJECT XU           
1 66908U 98067XU  26072.46373896  .00167250  00000+0  13010-2 0  9999
2 66908  51.6245  46.3387 0004897 107.7206 252.4326 15.70686547 15779
ISS OBJECT YE           
1 67688U 98067YE  26072.32442635  .00054923  00000+0  86880-3 0  9996
2 67688  51.6312  53.6814 0008075 164.1724 195.9520 15.52874098  5271
