[ {"OBJECT_NAME": "GAOFEN-1 02", "NORAD_CAT_ID": 43259, "MEAN_MOTION": 14.76449151, "ECCENTRICITY": 0.0002195, "INCLINATION": 98.0637, "RA_OF_ASC_NODE": 135.4203, "ARG_OF_PERICENTER": 336.3176, "MEAN_ANOMALY": 23.7932, "BSTAR": 9.090000000000001e-05, "EPOCH": "2026-03-13T16:10:22"}, {"OBJECT_NAME": "GAOFEN-1 04", "NORAD_CAT_ID": 43262, "MEAN_MOTION": 14.76444841, "ECCENTRICITY": 0.0001855, "INCLINATION": 98.0639, "RA_OF_ASC_NODE": 135.7601, "ARG_OF_PERICENTER": 75.9314, "MEAN_ANOMALY": 284.2102, "BSTAR": 7.517899999999999e-05, "EPOCH": "2026-03-13T23:11:53"}, {"OBJECT_NAME": "GAOFEN-10R", "NORAD_CAT_ID": 44622, "MEAN_MOTION": 14.83170684, "ECCENTRICITY": 0.0008263, "INCLINATION": 98.0402, "RA_OF_ASC_NODE": 25.9011, "ARG_OF_PERICENTER": 94.7549, "MEAN_ANOMALY": 265.4608, "BSTAR": 0.00022164, "EPOCH": "2026-03-13T22:46:16"}, {"OBJECT_NAME": "JILIN-1 GAOFEN 2A", "NORAD_CAT_ID": 44777, "MEAN_MOTION": 15.36565084, "ECCENTRICITY": 0.0007548, "INCLINATION": 97.5004, "RA_OF_ASC_NODE": 154.6993, "ARG_OF_PERICENTER": 72.4081, "MEAN_ANOMALY": 287.7987, "BSTAR": 0.00049885, "EPOCH": "2026-03-13T22:46:36"}, {"OBJECT_NAME": "JILIN-1 GAOFEN 03D18", "NORAD_CAT_ID": 51844, "MEAN_MOTION": 15.77584928, "ECCENTRICITY": 0.0003896, "INCLINATION": 97.3668, "RA_OF_ASC_NODE": 163.7334, "ARG_OF_PERICENTER": 138.3279, "MEAN_ANOMALY": 221.8285, "BSTAR": 0.0010383, "EPOCH": "2026-03-12T06:23:35"}, {"OBJECT_NAME": "GAOFEN DUOMO (GFDM)", "NORAD_CAT_ID": 45856, "MEAN_MOTION": 14.76849797, "ECCENTRICITY": 0.0011845, "INCLINATION": 97.7861, "RA_OF_ASC_NODE": 136.2514, "ARG_OF_PERICENTER": 26.2921, "MEAN_ANOMALY": 333.8888, "BSTAR": 0.00016078999999999998, "EPOCH": "2026-03-13T22:43:13"}, {"OBJECT_NAME": "JILIN-1 GAOFEN 3D03", "NORAD_CAT_ID": 49006, "MEAN_MOTION": 15.81878461, "ECCENTRICITY": 0.0001474, "INCLINATION": 97.3008, "RA_OF_ASC_NODE": 150.2487, "ARG_OF_PERICENTER": 150.7775, "MEAN_ANOMALY": 209.3576, "BSTAR": 0.0011672, "EPOCH": "2026-03-13T23:41:57"}, {"OBJECT_NAME": "GAOFEN-1 03", "NORAD_CAT_ID": 43260, "MEAN_MOTION": 14.76428287, "ECCENTRICITY": 0.0003234, "INCLINATION": 98.0626, "RA_OF_ASC_NODE": 135.6052, "ARG_OF_PERICENTER": 39.7747, "MEAN_ANOMALY": 320.3699, "BSTAR": 0.00015166, "EPOCH": "2026-03-13T23:46:47"}, {"OBJECT_NAME": "GAOFEN-5 02", "NORAD_CAT_ID": 49122, "MEAN_MOTION": 14.57725614, "ECCENTRICITY": 1.09e-05, "INCLINATION": 98.2672, "RA_OF_ASC_NODE": 147.9575, "ARG_OF_PERICENTER": 265.6614, "MEAN_ANOMALY": 94.4572, "BSTAR": 4.4049000000000005e-05, "EPOCH": "2026-03-13T23:40:13"}, {"OBJECT_NAME": "JILIN-1 GAOFEN 3B", "NORAD_CAT_ID": 46454, "MEAN_MOTION": 15.81348232, "ECCENTRICITY": 0.0003185, "INCLINATION": 97.2358, "RA_OF_ASC_NODE": 130.4491, "ARG_OF_PERICENTER": 144.1208, "MEAN_ANOMALY": 216.0275, "BSTAR": 0.0010368, "EPOCH": "2026-03-13T16:43:21"}, {"OBJECT_NAME": "JILIN-1 GAOFEN 03D54", "NORAD_CAT_ID": 54254, "MEAN_MOTION": 15.69110286, "ECCENTRICITY": 0.0003038, "INCLINATION": 97.6018, "RA_OF_ASC_NODE": 216.0779, "ARG_OF_PERICENTER": 304.0613, "MEAN_ANOMALY": 56.036, "BSTAR": 0.0009132400000000001, "EPOCH": "2026-03-13T22:32:23"}, {"OBJECT_NAME": "ISS (ZARYA)", "NORAD_CAT_ID": 25544, "MEAN_MOTION": 15.48633802, "ECCENTRICITY": 0.0007884, "INCLINATION": 51.6324, "RA_OF_ASC_NODE": 52.4887, "ARG_OF_PERICENTER": 189.2977, "MEAN_ANOMALY": 170.7866, "BSTAR": 0.00022432, "EPOCH": "2026-03-13T16:59:24"}, {"OBJECT_NAME": "ISS (NAUKA)", "NORAD_CAT_ID": 49044, "MEAN_MOTION": 15.48633802, "ECCENTRICITY": 0.0007884, "INCLINATION": 51.6324, "RA_OF_ASC_NODE": 52.4887, "ARG_OF_PERICENTER": 189.2977, "MEAN_ANOMALY": 170.7866, "BSTAR": 0.00022432, "EPOCH": "2026-03-13T16:59:24"}, {"OBJECT_NAME": "SWISSCUBE", "NORAD_CAT_ID": 35932, "MEAN_MOTION": 14.62272355, "ECCENTRICITY": 0.000737, "INCLINATION": 98.4096, "RA_OF_ASC_NODE": 339.2128, "ARG_OF_PERICENTER": 140.2287, "MEAN_ANOMALY": 219.9456, "BSTAR": 0.00027243, "EPOCH": "2026-03-13T23:50:57"}, {"OBJECT_NAME": "ISS OBJECT XU", "NORAD_CAT_ID": 66908, "MEAN_MOTION": 15.70686547, "ECCENTRICITY": 0.0004897, "INCLINATION": 51.6245, "RA_OF_ASC_NODE": 46.3387, "ARG_OF_PERICENTER": 107.7206, "MEAN_ANOMALY": 252.4326, "BSTAR": 0.0013009999999999999, "EPOCH": "2026-03-13T11:07:47"}, {"OBJECT_NAME": "OUTPOST MISSION 2", "NORAD_CAT_ID": 58334, "MEAN_MOTION": 15.51046817, "ECCENTRICITY": 0.0006981, "INCLINATION": 97.3968, "RA_OF_ASC_NODE": 162.7831, "ARG_OF_PERICENTER": 111.1455, "MEAN_ANOMALY": 249.0543, "BSTAR": 0.00065889, "EPOCH": "2026-03-13T22:52:24"}, {"OBJECT_NAME": "ISS (UNITY)", "NORAD_CAT_ID": 25575, "MEAN_MOTION": 15.48633802, "ECCENTRICITY": 0.0007884, "INCLINATION": 51.6324, "RA_OF_ASC_NODE": 52.4887, "ARG_OF_PERICENTER": 189.2977, "MEAN_ANOMALY": 170.7866, "BSTAR": 0.00022432, "EPOCH": "2026-03-13T16:59:24"}, {"OBJECT_NAME": "ISS OBJECT YE", "NORAD_CAT_ID": 67688, "MEAN_MOTION": 15.52874098, "ECCENTRICITY": 0.0008075, "INCLINATION": 51.6312, "RA_OF_ASC_NODE": 53.6814, "ARG_OF_PERICENTER": 164.1724, "MEAN_ANOMALY": 195.952, "BSTAR": 0.0008688000000000001, "EPOCH": "2026-03-13T07:47:10"}]